 2019  519  6 9 48.0 L                            1 0.0                        1
 Action:ARG 20-10-30 17:45 OP:OBSP STATUS:               ID:20190519060948     I
 DUMMY                                                                         6
 STAT SP IPHASW D HRMM SECON CODA AMPLIT PERI AZIMU VELO AIN AR TRES W  DIS CAZ7
 STAT S2  P   0A   6 950.200                                                    
 STAT S2  S   1A   6 951.500                                                    
 STAT S2  IAML A   6 952.000       410.0 0.22                                   
                                                                                

